     2.10           N: GPS NAV DATA                         RINEX VERSION / TYPE
teqc  2009Mar23                         20140506 00:19:19UTCPGM / RUN BY / DATE
    16                                                      LEAP SECONDS
Linux 2.4.20-8|Pentium IV|gcc -static|Linux|486/DX+         COMMENT
teqc  2009Mar23                         20140505 01:05:03UTCCOMMENT
                                                            END OF HEADER
 5 14  5  5 10  0  0.0-3.748140297830D-04 2.387423592154D-12 0.000000000000D+00
    5.400000000000D+01 8.312500000000D+00 5.228789228631D-09 2.202954925892D+00
    5.010515451431D-07 3.566741594113D-03 6.705522537231D-06 5.153581644058D+03
    1.224000000000D+05-1.341104507446D-07-2.800868488215D-01 6.891787052155D-08
    9.476061762408D-01 2.449687500000D+02 3.164782102449D-01-8.282487856007D-09
   -7.250302004181D-11 1.000000000000D+00 1.791000000000D+03 0.000000000000D+00
    2.000000000000D+00 0.000000000000D+00-1.024454832077D-08 5.400000000000D+01
    1.178700000000D+05 4.000000000000D+00
 6 14  5  5 10  0  0.0-1.582801342010D-04-2.046363078989D-12 0.000000000000D+00
    8.000000000000D+01-3.740625000000D+01 5.303435195078D-09 2.306021088726D+00
   -1.961365342140D-06 6.924442714080D-03 4.483386874199D-06 5.153588796616D+03
    1.224000000000D+05-2.235174179077D-08 2.880674123389D+00-1.695007085800D-07
    9.810978219080D-01 3.049062500000D+02 8.592356077548D-01-7.997833141853D-09
    1.785788670980D-11 1.000000000000D+00 1.791000000000D+03 0.000000000000D+00
    4.000000000000D+00 6.300000000000D+01-1.909211277962D-08 8.000000000000D+01
    1.178700000000D+05 4.000000000000D+00
 7 14  5  5 10  0  0.0 3.428398631513D-04 4.206412995700D-12 0.000000000000D+00
    5.800000000000D+01 6.203125000000D+01 4.082670059595D-09-1.383689913450D+00
    3.123655915260D-06 7.261947146617D-03 6.677582859993D-06 5.153635744095D+03
    1.224000000000D+05 4.284083843231D-08 1.841900703540D+00-1.993030309677D-07
    9.733728508063D-01 2.587187500000D+02-2.841443391580D+00-7.898900449481D-09
    5.178787145843D-11 1.000000000000D+00 1.791000000000D+03 0.000000000000D+00
    2.000000000000D+00 0.000000000000D+00-1.071020960808D-08 5.800000000000D+01
    1.178700000000D+05 4.000000000000D+00
 8 14  5  5 10  0  0.0 1.336866989732D-05 3.410605131648D-13 0.000000000000D+00
    6.300000000000D+01 5.618750000000D+01 3.586935124531D-09-1.911244663355D+00
    2.786517143250D-06 1.366267469712D-02 6.465241312981D-06 5.153479396820D+03
    1.224000000000D+05 1.117587089539D-08 1.940866998958D+00-1.806765794754D-07
    9.966217614339D-01 2.735937500000D+02-2.779494112538D+00-7.623531836415D-09
    2.078658013021D-10 1.000000000000D+00 1.791000000000D+03 0.000000000000D+00
    2.000000000000D+00 0.000000000000D+00-4.190951585770D-09 6.300000000000D+01
    1.178700000000D+05 4.000000000000D+00
 9 14  5  5 10  0  0.0 3.252672031522D-04 2.955857780762D-12 0.000000000000D+00
    7.600000000000D+01 5.753125000000D+01 3.990166206439D-09-3.207941374949D-01
    2.944841980934D-06 1.715844671708D-02 7.083639502525D-06 5.153682878494D+03
    1.224000000000D+05-3.241002559662D-07 1.821329145121D+00 0.000000000000D+00
    9.819082346364D-01 2.580000000000D+02 1.799117238603D+00-8.132838765379D-09
    8.857511808063D-11 1.000000000000D+00 1.791000000000D+03 0.000000000000D+00
    2.000000000000D+00 0.000000000000D+00-6.053596735001D-09 7.600000000000D+01
    1.178700000000D+05 4.000000000000D+00
15 14  5  5 10  0  0.0-1.777275465429D-04-2.160049916711D-12 0.000000000000D+00
    9.400000000000D+01 2.193750000000D+01 5.138428321879D-09 6.889739105060D-01
    1.326203346252D-06 6.248964928091D-03 8.147209882736D-06 5.153685480118D+03
    1.224000000000D+05 2.235174179077D-08 7.339983772243D-01 7.823109626770D-08
    9.371548875999D-01 2.054062500000D+02 2.761676810467D-01-8.361776872999D-09
   -3.957307694893D-10 1.000000000000D+00 1.791000000000D+03 0.000000000000D+00
    2.000000000000D+00 0.000000000000D+00-1.024454832077D-08 9.400000000000D+01
    1.178700000000D+05 4.000000000000D+00
16 14  5  5 10  0  0.0-2.199844457209D-04 1.818989403546D-12 0.000000000000D+00
    5.700000000000D+01-4.087500000000D+01 3.918020344131D-09 2.319583911958D+00
   -2.119690179825D-06 7.746475166641D-03 4.753470420837D-06 5.153583938599D+03
    1.224000000000D+05-1.322478055954D-07 2.923156209647D+00 1.676380634308D-08
    9.882290325973D-01 3.047812500000D+02 1.942464556703D-01-7.947116743597D-09
   -6.107397254753D-11 1.000000000000D+00 1.791000000000D+03 0.000000000000D+00
    2.000000000000D+00 0.000000000000D+00-1.024454832077D-08 5.700000000000D+01
    1.178700000000D+05 4.000000000000D+00
18 14  5  5 10  0  0.0 3.173602744937D-04 2.273736754432D-12 0.000000000000D+00
    2.400000000000D+01 2.906250000000D+00 5.548088243002D-09 2.977934479313D+00
    6.519258022308D-08 1.519765146077D-02 6.394460797310D-06 5.153688823700D+03
    1.224000000000D+05 8.568167686462D-08-2.848812629281D-01-2.924352884293D-07
    9.261673268381D-01 2.348437500000D+02-2.042713164185D+00-8.289988168425D-09
   -1.935794919343D-10 1.000000000000D+00 1.791000000000D+03 0.000000000000D+00
    2.000000000000D+00 0.000000000000D+00-1.117587089539D-08 2.400000000000D+01
    1.178700000000D+05 4.000000000000D+00
21 14  5  5 10  0  0.0-3.592856228352D-04-2.273736754432D-12 0.000000000000D+00
    1.100000000000D+01 6.375000000000D+00 5.208788395516D-09-2.331729132461D+00
    2.980232238770D-08 2.145260979887D-02 7.584691047668D-06 5.153762594223D+03
    1.224000000000D+05 2.719461917877D-07-1.330263220631D+00-2.048909664154D-08
    9.319786313937D-01 2.103437500000D+02-2.030208258940D+00-8.022119867778D-09
    5.296649198128D-10 1.000000000000D+00 1.791000000000D+03 0.000000000000D+00
    2.000000000000D+00 0.000000000000D+00-1.117587089539D-08 1.100000000000D+01
    1.178700000000D+05 4.000000000000D+00
26 14  5  5 10  0  0.0 8.827215060592D-05-1.159605744760D-11 0.000000000000D+00
    6.800000000000D+01 2.878125000000D+01 4.314822586823D-09 1.509050732763D-01
    1.741573214531D-06 2.142194379121D-02 8.823350071907D-06 5.153691530228D+03
    1.224000000000D+05-3.352761268616D-07 8.683177455137D-01 1.434236764908D-07
    9.753135023393D-01 2.200937500000D+02 1.281415230259D+00-8.229271353612D-09
   -3.593006806013D-10 1.000000000000D+00 1.791000000000D+03 0.000000000000D+00
    2.000000000000D+00 0.000000000000D+00-6.053596735001D-09 6.800000000000D+01
    1.178700000000D+05 4.000000000000D+00
29 14  5  5 10  0  0.0 5.303448997438D-04 2.842170943040D-12 0.000000000000D+00
    9.500000000000D+01-5.734375000000D+01 4.135886561991D-09-2.129073557420D+00
   -2.877786755562D-06 1.633237698115D-03 8.586794137955D-06 5.153717042923D+03
    1.224000000000D+05-1.676380634308D-08-2.319221086330D+00 4.097819328308D-08
    9.691759802183D-01 2.181875000000D+02-8.906421913937D-01-7.855327205909D-09
    1.942938074027D-10 1.000000000000D+00 1.791000000000D+03 0.000000000000D+00
    2.000000000000D+00 0.000000000000D+00-9.778887033463D-09 9.500000000000D+01
    1.178700000000D+05 4.000000000000D+00
10 14  5  5  9 59 44.0-1.242612488568D-04-1.477928890381D-12 0.000000000000D+00
    1.000000000000D+00 8.468750000000D+00 5.225931966757D-09 2.450213356124D+00
    2.570450305939D-07 1.352704188321D-02 6.824731826782D-06 5.153723773956D+03
    1.223840000000D+05-5.587935447693D-08-2.626992906399D-01-2.365559339523D-07
    9.424155307725D-01 2.377500000000D+02 8.630634587202D-01-8.099265938365D-09
   -9.500395729616D-11 1.000000000000D+00 1.791000000000D+03 0.000000000000D+00
    2.000000000000D+00 0.000000000000D+00-2.793967723846D-09 1.000000000000D+00
    1.152300000000D+05 4.000000000000D+00
25 14  5  5 10  0  0.0 2.327235415578D-05 6.821210263297D-13 0.000000000000D+00
    8.600000000000D+01-3.543750000000D+01 4.068383750228D-09-2.585281874521D+00
   -1.762062311172D-06 3.561072750017D-03 4.490837454796D-06 5.153618717194D+03
    1.224000000000D+05-3.725290298462D-08 2.862463859578D+00-1.490116119385D-08
    9.763152237908D-01 3.020937500000D+02 6.586090796089D-01-7.959260106560D-09
    1.392915163365D-11 1.000000000000D+00 1.791000000000D+03 0.000000000000D+00
    2.000000000000D+00 0.000000000000D+00 5.122274160385D-09 8.600000000000D+01
    1.162500000000D+05 4.000000000000D+00
27 14  5  5 10  0  0.0-1.768162474036D-05 1.477928890381D-12 0.000000000000D+00
    5.200000000000D+01-6.725000000000D+01 4.310893851747D-09 1.479735184247D+00
   -3.606081008911D-06 1.196072204039D-03 8.786097168922D-06 5.153679384232D+03
    1.224000000000D+05 2.980232238770D-08-2.373659651789D+00 1.862645149231D-08
    9.632150498645D-01 2.099687500000D+02 1.018035255540D-01-7.988904198498D-09
    9.036090675161D-11 1.000000000000D+00 1.791000000000D+03 0.000000000000D+00
    2.000000000000D+00 0.000000000000D+00 1.862645149231D-09 5.200000000000D+01
    1.192200000000D+05 4.000000000000D+00
22 14  5  5 10  0  0.0 2.318574115634D-04 2.955857780762D-12 0.000000000000D+00
    4.900000000000D+01 3.281250000000D+00 5.665235979818D-09 2.421771772424D+00
    1.117587089539D-07 7.157196756452D-03 6.580725312233D-06 5.153724134445D+03
    1.224000000000D+05 5.587935447693D-09-2.829537045118D-01-1.341104507446D-07
    9.239419226897D-01 2.338437500000D+02-2.060652776448D+00-8.430351157964D-09
   -1.564350875779D-10 1.000000000000D+00 1.791000000000D+03 0.000000000000D+00
    2.000000000000D+00 0.000000000000D+00-1.722946763039D-08 4.900000000000D+01
    1.194300000000D+05 4.000000000000D+00
